NORAD_CAT_ID,OBJECT_NAME,OBJECT_TYPE,EPOCH,MEAN_MOTION,ECCENTRICITY,INCLINATION,RA_OF_ASC_NODE,ARG_OF_PERICENTER,MEAN_ANOMALY,BSTAR,MEAN_MOTION_DOT,MEAN_MOTION_DDOT,TLE_LINE0,TLE_LINE1,TLE_LINE2,SEMIMAJOR_AXIS,PERIOD,APOGEE,PERIGEE,DECAYED
52488.0,STARLINK-3892,PAYLOAD,2022-10-16 19:09:13,15.088302,0.0001702,53.2191,225.2099,55.2123,304.9029,-9.2235e-05,-1.755e-05,0.0,0 STARLINK-3892,1 52488U 22049AP  22289.79806809 -.00001755  00000-0 -92235-4 0  9999,2 52488  53.2191 225.2099 0001702  55.2123 304.9029 15.08830200 25075,6917.91,95.438,540.953,538.5980000000002,0.0
52488.0,STARLINK-3892,PAYLOAD,2022-10-17 04:41:31,15.08831577,0.0001696,53.2193,223.4255,52.6341,307.4806,3.5508e-05,2.77e-06,0.0,0 STARLINK-3892,1 52488U 22049AP  22290.19550630  .00000277  00000-0  35508-4 0  9999,2 52488  53.2193 223.4255 0001696  52.6341 307.4806 15.08831577 25132,6917.906,95.438,540.944,538.5980000000002,0.0
52488.0,STARLINK-3892,PAYLOAD,2022-10-18 04:32:18,15.08842044,0.0001705,53.2194,218.9652,60.2385,299.8776,0.00011916,1.609e-05,0.0,0 STARLINK-3892,1 52488U 22049AP  22291.18909805  .00001609  00000-0  11916-3 0  9997,2 52488  53.2194 218.9652 0001705  60.2385 299.8776 15.08842044 25284,6917.874,95.437,540.919,538.56,0.0
52488.0,STARLINK-3892,PAYLOAD,2022-10-18 12:29:14,15.08832833,0.0001753,53.2194,217.4786,55.4643,304.6515,0.00011496,1.542e-05,0.0,0 STARLINK-3892,1 52488U 22049AP  22291.52030544  .00001542  00000-0  11496-3 0  9999,2 52488  53.2194 217.4786 0001753  55.4643 304.6515 15.08832833 25496,6917.901999999999,95.438,540.98,538.555,0.0
52488.0,STARLINK-3892,PAYLOAD,2022-10-19 04:23:05,15.08844685,0.000177,53.2201,214.5064,39.7604,320.3517,0.00018633,2.679e-05,0.0,0 STARLINK-3892,1 52488U 22049AP  22292.18269743  .00002679  00000-0  18633-3 0  9999,2 52488  53.2201 214.5064 0001770  39.7604 320.3517 15.08844685 25599,6917.866,95.437,540.956,538.507,0.0
52488.0,STARLINK-3892,PAYLOAD,2022-10-19 12:20:00,15.08849118,0.0001665,53.2192,213.0178,52.8688,307.2456,0.00010019,1.307e-05,0.0,0 STARLINK-3892,1 52488U 22049AP  22292.51389485  .00001307  00000-0  10019-3 0  9999,2 52488  53.2192 213.0178 0001665  52.8688 307.2456 15.08849118 25489,6917.853,95.437,540.869,538.566,0.0
52488.0,STARLINK-3892,PAYLOAD,2022-10-20 12:10:47,15.0884544,0.0001714,53.2193,208.5578,54.2929,305.8222,-1.0934e-05,-4.62e-06,0.0,0 STARLINK-3892,1 52488U 22049AP  22293.50749595 -.00000462  00000-0 -10934-4 0  9991,2 52488  53.2193 208.5578 0001714  54.2929 305.8222 15.08845440 25795,6917.864000000001,95.437,540.914,538.543,0.0
52488.0,STARLINK-3892,PAYLOAD,2022-10-21 04:04:38,15.08846516,0.0001908,53.2199,205.5849,54.0019,306.115,3.6909e-06,-2.29e-06,0.0,0 STARLINK-3892,1 52488U 22049AP  22294.16989376 -.00000229  00000-0  36909-5 0  9998,2 52488  53.2199 205.5849 0001908  54.0019 306.1150 15.08846516 25735,6917.86,95.437,541.045,538.406,0.0
52488.0,STARLINK-3892,PAYLOAD,2022-10-22 02:20:02,15.08840827,0.0001746,53.2186,201.4207,48.6256,311.4886,4.0925e-05,3.63e-06,0.0,0 STARLINK-3892,1 52488U 22049AP  22295.09725330  .00000363  00000-0  40925-4 0  9999,2 52488  53.2186 201.4207 0001746  48.6256 311.4886 15.08840827 26034,6917.878000000002,95.438,540.951,538.535,0.0
52488.0,STARLINK-3892,PAYLOAD,2022-10-22 18:13:54,15.0883349,0.0001792,53.2192,198.4469,53.1027,307.0129,-2.3316e-06,-3.25e-06,0.0,0 STARLINK-3892,1 52488U 22049AP  22295.75966063 -.00000325  00000-0 -23316-5 0  9998,2 52488  53.2192 198.4469 0001792  53.1027 307.0129 15.08833490 25975,6917.9,95.438,541.005,538.526,0.0
52488.0,STARLINK-3892,PAYLOAD,2022-10-22 21:24:41,15.08832416,0.0001761999999999,53.2199,197.8539,58.3092,301.8072,-8.8632e-07,-3.02e-06,0.0,0 STARLINK-3892,1 52488U 22049AP  22295.89214297 -.00000302  00000-0 -88632-6 0  9996,2 52488  53.2199 197.8539 0001762  58.3092 301.8072 15.08832416 26156,6917.904,95.438,540.988,538.55,0.0
52488.0,STARLINK-3892,PAYLOAD,2022-10-23 03:46:13,15.08837143,0.0001844,53.2194,196.6639,51.1765,308.9391,2.081e-05,4.3e-07,0.0,0 STARLINK-3892,1 52488U 22049AP  22296.15709992  .00000043  00000-0  20810-4 0  9999,2 52488  53.2194 196.6639 0001844  51.1765 308.9391 15.08837143 26039,6917.889,95.438,541.03,538.4780000000002,0.0
52488.0,STARLINK-3892,PAYLOAD,2022-10-24 03:36:59,15.08850169,0.0001761999999999,53.2192,192.2045,50.43600000000001,309.6788,7.4483e-05,8.98e-06,0.0,0 STARLINK-3892,1 52488U 22049AP  22297.15068649  .00000898  00000-0  74483-4 0  9990,2 52488  53.2192 192.2045 0001762  50.4360 309.6788 15.08850169 26347,6917.849,95.437,540.933,538.495,0.0
52488.0,STARLINK-3892,PAYLOAD,2022-10-25 03:27:49,15.088159,0.0001699,53.2192,187.7446,56.5634,303.552,-9.4947e-05,-1.798e-05,0.0,0 STARLINK-3892,1 52488U 22049AP  22298.14432374 -.00001798  00000-0 -94947-4 0  9999,2 52488  53.2192 187.7446 0001699  56.5634 303.5520 15.08815900 26498,6917.954000000002,95.439,540.994,538.644,0.0
52488.0,STARLINK-3892,PAYLOAD,2022-10-25 09:49:22,15.088230599999996,0.0001792,53.2191,186.5557,54.115,306.0008,-0.00011328,-2.09e-05,0.0,0 STARLINK-3892,1 52488U 22049AP  22298.40928317 -.00002090  00000-0 -11328-3 0  9992,2 52488  53.2191 186.5557 0001792  54.1150 306.0008 15.08823060 26370,6917.932,95.439,541.0369999999998,538.557,0.0
52488.0,STARLINK-3892,PAYLOAD,2022-10-26 01:43:13,15.08830506,0.0001864,53.2194,183.5815,54.6277,305.4889,-2.2824e-05,-6.51e-06,0.0,0 STARLINK-3892,1 52488U 22049AP  22299.07168168 -.00000651  00000-0 -22824-4 0  9991,2 52488  53.2194 183.5815 0001864  54.6277 305.4889 15.08830506 26634,6917.909000000002,95.438,541.064,538.485,0.0
52488.0,STARLINK-3892,PAYLOAD,2022-10-26 09:40:08,15.08834227,0.0001882,53.2195,182.0949,54.9,305.2169,8.7451e-06,-1.49e-06,0.0,0 STARLINK-3892,1 52488U 22049AP  22299.40288106 -.00000149  00000-0  87451-5 0  9992,2 52488  53.2195 182.0949 0001882  54.9000 305.2169 15.08834227 26525,6917.898,95.438,541.065,538.461,0.0
52488.0,STARLINK-3892,PAYLOAD,2022-10-26 19:12:28,15.08827512,0.000187,53.2192,180.3108,55.4098,304.7071,0.00024689,3.642e-05,0.0,0 STARLINK-3892,1 52488U 22049AP  22299.80032464  .00003642  00000-0  24689-3 0  9992,2 52488  53.2192 180.3108 0001870  55.4098 304.7071 15.08827512 26581,6917.919,95.438,541.077,538.49,0.0
52488.0,STARLINK-3892,PAYLOAD,2022-10-27 01:34:00,15.08835629,0.0001935,53.2193,179.1216,56.793,303.3248,0.00032191,4.838e-05,0.0,0 STARLINK-3892,1 52488U 22049AP  22300.06528269  .00004838  00000-0  32191-3 0  9991,2 52488  53.2193 179.1216 0001935  56.7930 303.3248 15.08835629 26623,6917.894,95.438,541.097,538.42,0.0
52488.0,STARLINK-3892,PAYLOAD,2022-10-27 20:38:37,15.08855014,0.0001946,53.2193,175.5534,57.4288,302.6892,0.00035336,5.342e-05,0.0,0 STARLINK-3892,1 52488U 22049AP  22300.86015152  .00005342  00000-0  35336-3 0  9996,2 52488  53.2193 175.5534 0001946  57.4288 302.6892 15.08855014 26742,6917.834,95.437,541.0459999999998,538.3530000000002,0.0
52488.0,STARLINK-3892,PAYLOAD,2022-10-28 09:21:42,15.0885098,0.0001865,53.2183,173.174,57.574,302.5433,0.00020835,3.03e-05,0.0,0 STARLINK-3892,1 52488U 22049AP  22301.39007640  .00003030  00000-0  20835-3 0  9998,2 52488  53.2183 173.1740 0001865  57.5740 302.5433 15.08850980 26824,6917.847,95.437,541.002,538.422,0.0
52488.0,STARLINK-3892,PAYLOAD,2022-10-28 18:54:02,15.08831881,0.0001888,53.2181,171.3903,59.6889,300.4290000000001,-0.00012129,-2.218e-05,0.0,0 STARLINK-3892,1 52488U 22049AP  22301.78752665 -.00002218  00000-0 -12129-3 0  9991,2 52488  53.2181 171.3903 0001888  59.6889 300.4290 15.08831881 26888,6917.905,95.438,541.076,538.464,0.0
52488.0,STARLINK-3892,PAYLOAD,2022-10-28 20:29:25,15.08829466,0.0001896999999999,53.218,171.0932,55.6006,304.5166,-0.00027666,-4.687e-05,0.0,0 STARLINK-3892,1 52488U 22049AP  22301.85376450 -.00004687  00000-0 -27666-3 0  9997,2 52488  53.2180 171.0932 0001897  55.6006 304.5166 15.08829466 27056,6917.913000000001,95.438,541.09,538.465,0.0
52488.0,STARLINK-3892,PAYLOAD,2022-10-29 02:50:57,15.08833676,0.0001824,53.2184,169.9037,51.795,308.3206,-0.00017714,-3.106e-05,0.0,0 STARLINK-3892,1 52488U 22049AP  22302.11872411 -.00003106  00000-0 -17714-3 0  9993,2 52488  53.2184 169.9037 0001824  51.7950 308.3206 15.08833676 26938,6917.9,95.438,541.0269999999998,538.503,0.0
52488.0,STARLINK-3892,PAYLOAD,2022-10-29 20:20:12,15.08843786,0.0001853,53.2181,166.6341,55.4229,304.6937,0.00081516,0.0001271,0.0,0 STARLINK-3892,1 52488U 22049AP  22302.84736769  .00012710  00000-0  81516-3 0  9998,2 52488  53.2181 166.6341 0001853  55.4229 304.6937 15.08843786 27045,6917.869000000002,95.437,541.016,538.452,0.0
52488.0,STARLINK-3892,PAYLOAD,2022-10-29 21:55:35,15.0884806,0.000199,53.218,166.3362,49.8647,310.2519,0.0010649,0.00016704,0.0,0 STARLINK-3892,1 52488U 22049AP  22302.91360808  .00016704  00000-0  10649-2 0  9998,2 52488  53.2180 166.3362 0001990  49.8647 310.2519 15.08848060 27215,6917.856,95.437,541.097,538.344,0.0
52488.0,STARLINK-3892,PAYLOAD,2022-10-30 07:27:54,15.08860459,0.0001986999999999,53.2176,164.5518,49.8086,310.308,0.00093595,0.00014647,0.0,0 STARLINK-3892,1 52488U 22049AP  22303.31104333  .00014647  00000-0  93595-3 0  9998,2 52488  53.2176 164.5518 0001987  49.8086 310.3080 15.08860459 27115,6917.818,95.436,541.057,538.308,0.0
52488.0,STARLINK-3892,PAYLOAD,2022-10-30 21:46:22,15.08848481,0.0001992,53.2182,161.8768,49.8813,310.2353,-8.889399999999999e-05,-1.703e-05,0.0,0 STARLINK-3892,1 52488U 22049AP  22303.90720053 -.00001703  00000-0 -88894-4 0  9994,2 52488  53.2182 161.8768 0001992  49.8813 310.2353 15.08848481 27363,6917.854,95.437,541.0980000000002,538.341,0.0
52488.0,STARLINK-3892,PAYLOAD,2022-11-01 00:47:55,15.08851885,0.0002144,53.2177,156.82,49.0387,311.079,0.00030189,4.521e-05,0.0,0 STARLINK-3892,1 52488U 22049AP  22305.03327626  .00004521  00000-0  30189-3 0  9991,2 52488  53.2177 156.8200 0002144  49.0387 311.0790 15.08851885 27535,6917.844,95.437,541.192,538.226,0.0
